GLOBALSTAR M075         
1 37192U 10054E   24140.87946314 -.00000077  00000+0  15164-3 0  9999
2 37192  51.9954 299.0721 0000897 111.1426  53.4494 12.62274374626705
GLOBALSTAR M073         
1 37193U 10054F   24141.16399800 -.00000070  00000+0  18789-3 0  9994
2 37193  52.0047 211.7264 0000419 158.5064 218.6997 12.62265419628252
GLOBALSTAR M083         
1 37739U 11033A   24141.01846788 -.00000082  00000+0  11888-3 0  9990
2 37739  51.9832 161.4359 0000342  84.7920 292.0965 12.62270121597566
GLOBALSTAR M088         
1 37740U 11033B   24140.12014242 -.00000093  00000+0  58248-4 0  9999
2 37740  51.9745  69.9918 0000745  69.2949 303.8875 12.62268236592638
GLOBALSTAR M091         
1 37741U 11033C   24140.16686517 -.00000082  00000+0  12216-3 0  9996
2 37741  52.0021  32.7024 0001072  78.3477  86.3226 12.62262760593422
GLOBALSTAR M085         
1 37742U 11033D   24141.02472937 -.00000073  00000+0  17215-3 0  9996
2 37742  51.9885 341.4775 0001126  94.7823  70.8077 12.62271169594537
GLOBALSTAR M081         
1 37743U 11033E   24141.49170260 -.00000066  00000+0  20894-3 0  9991
2 37743  51.9975 342.6007 0001093 106.0626 262.0125 12.62265011594639
GLOBALSTAR M089         
1 37744U 11033F   24140.85363550 -.00000083  00000+0  11639-3 0  9993
2 37744  51.9935 298.8471 0000631 136.4385  29.4702 12.62263867595262
